[{"OBJECT_NAME":"STARLINK-31590","OBJECT_ID":"2024-045W","EPOCH":"2026-03-09T11:14:49.962912","MEAN_MOTION":15.2757136,"ECCENTRICITY":9.918e-5,"INCLINATION":43.0033,"RA_OF_ASC_NODE":94.125,"ARG_OF_PERICENTER":282.3271,"MEAN_ANOMALY":77.747,"EPHEMERIS_TYPE":0,"CLASSIFICATION_TYPE":"U","NORAD_CAT_ID":59198,"ELEMENT_SET_NO":999,"REV_AT_EPOCH":11312,"BSTAR":-1.4205082e-5,"MEAN_MOTION_DOT":-6.53e-6,"MEAN_MOTION_DDOT":0},{"OBJECT_NAME":"KUIPER-00266","OBJECT_ID":"2026-030AB","EPOCH":"2026-03-08T21:54:37.698048","MEAN_MOTION":15.30874235,"ECCENTRICITY":0.0022313,"INCLINATION":51.8807,"RA_OF_ASC_NODE":223.5904,"ARG_OF_PERICENTER":72.5291,"MEAN_ANOMALY":287.8129,"EPHEMERIS_TYPE":0,"CLASSIFICATION_TYPE":"U","NORAD_CAT_ID":67789,"ELEMENT_SET_NO":999,"REV_AT_EPOCH":496,"BSTAR":0.00098219753,"MEAN_MOTION_DOT":0.00029701,"MEAN_MOTION_DDOT":0}]
