STARLINK-31590          
1 59198U 24045W   26068.46863383 -.00000653  00000+0 -14205-4 0  9991
2 59198  43.0033  94.1250 0000991 282.3271  77.7470 15.27571360113129
KUIPER-00266            
1 67789U 26030AB  26067.91293632  .00029701  00000+0  98220-3 0  9996
2 67789  51.8807 223.5904 0022313  72.5291 287.8129 15.30874235  4964
